start=new Date('2022-06-30T00:00:00.000Z').valueOf();
sats=[{"CENTER_NAME":"EARTH","FILE":"3505485","NORAD_CAT_ID":"47892","PERIOD":"94.931","MEAN_MOTION_DDOT":"0.0000000000000","ECCENTRICITY":"0.00019410","CLASSIFICATION_TYPE":"U","BSTAR":"0.00004094200000","REF_FRAME":"TEME","OBJECT_NAME":"STARLINK-2352","MEAN_MOTION_DOT":"0.00000504","PERIAPSIS":"513.891","DECAY_DATE":null,"MEAN_ANOMALY":"322.4922","OBJECT_ID":"2021-021AJ","TLE_LINE1":"1 47892U 21021AJ  22180.36368046  .00000504  00000-0  40942-4 0  9997","TLE_LINE2":"2 47892  53.0544 209.5654 0001941  37.6207 322.4922 15.16896571 72815","MEAN_MOTION":"15.16896571","SITE":"AFETR","INCLINATION":"53.0544","RCS_SIZE":"LARGE","APOAPSIS":"516.567","MEAN_ELEMENT_THEORY":"SGP4","COUNTRY_CODE":"US","LAUNCH_DATE":"2021-03-14","OBJECT_TYPE":"PAYLOAD","TIME_SYSTEM":"UTC","RA_OF_ASC_NODE":"209.5654","EPOCH":"2022-06-29T08:43:41.991744","ELEMENT_SET_NO":"999","EPHEMERIS_TYPE":"0","REV_AT_EPOCH":"7281","ARG_OF_PERICENTER":"37.6207","SEMIMAJOR_AXIS":"6893.364","GP_ID":"207090898"},{"TLE_LINE2":"2 47894  53.0544 208.5203 0001630  60.5730 299.5421 15.06386062 72789","TLE_LINE1":"1 47894U 21021AL  22180.46826406 -.00000893  00000-0 -41061-4 0  9995","MEAN_ANOMALY":"299.5421","OBJECT_ID":"2021-021AL","DECAY_DATE":null,"PERIAPSIS":"546.127","SITE":"AFETR","MEAN_MOTION":"15.06386062","ECCENTRICITY":"0.00016300","MEAN_MOTION_DDOT":"0.0000000000000","PERIOD":"95.593","NORAD_CAT_ID":"47894","FILE":"3505485","CENTER_NAME":"EARTH","MEAN_MOTION_DOT":"-0.00000893","OBJECT_NAME":"STARLINK-2354","REF_FRAME":"TEME","BSTAR":"-0.00004106100000","CLASSIFICATION_TYPE":"U","REV_AT_EPOCH":"7278","GP_ID":"207092149","SEMIMAJOR_AXIS":"6925.391","ARG_OF_PERICENTER":"60.5730","MEAN_ELEMENT_THEORY":"SGP4","APOAPSIS":"548.385","INCLINATION":"53.0544","RCS_SIZE":"LARGE","EPHEMERIS_TYPE":"0","ELEMENT_SET_NO":"999","EPOCH":"2022-06-29T11:14:18.014784","RA_OF_ASC_NODE":"208.5203","TIME_SYSTEM":"UTC","LAUNCH_DATE":"2021-03-14","OBJECT_TYPE":"PAYLOAD","COUNTRY_CODE":"US"},{"OBJECT_NAME":"STARLINK-2355","MEAN_MOTION_DOT":"0.00000567","REF_FRAME":"TEME","CLASSIFICATION_TYPE":"U","BSTAR":"0.00005693700000","ECCENTRICITY":"0.00015340","MEAN_MOTION_DDOT":"0.0000000000000","PERIOD":"95.592","FILE":"3505610","CENTER_NAME":"EARTH","NORAD_CAT_ID":"47895","SITE":"AFETR","MEAN_MOTION":"15.06396908","TLE_LINE2":"2 47895  53.0523 208.1704 0001534  67.5659 292.5492 15.06396908 72825","TLE_LINE1":"1 47895U 21021AM  22180.54565211  .00000567  00000-0  56937-4 0  9993","OBJECT_ID":"2021-021AM","MEAN_ANOMALY":"292.5492","DECAY_DATE":null,"PERIAPSIS":"546.161","EPHEMERIS_TYPE":"0","ELEMENT_SET_NO":"999","EPOCH":"2022-06-29T13:05:44.342304","RA_OF_ASC_NODE":"208.1704","TIME_SYSTEM":"UTC","OBJECT_TYPE":"PAYLOAD","LAUNCH_DATE":"2021-03-14","COUNTRY_CODE":"US","MEAN_ELEMENT_THEORY":"SGP4","APOAPSIS":"548.285","INCLINATION":"53.0523","RCS_SIZE":"LARGE","GP_ID":"207119823","SEMIMAJOR_AXIS":"6925.358","ARG_OF_PERICENTER":"67.5659","REV_AT_EPOCH":"7282"},{"MEAN_ANOMALY":"305.2242","OBJECT_ID":"2021-021AN","PERIAPSIS":"546.341","DECAY_DATE":null,"TLE_LINE2":"2 47896  53.0518 223.2038 0001304  54.8869 305.2242 15.06389950 72582","TLE_LINE1":"1 47896U 21021AN  22180.53875103  .00000067  00000-0  23409-4 0  9990","MEAN_MOTION":"15.06389950","SITE":"AFETR","NORAD_CAT_ID":"47896","FILE":"3505485","CENTER_NAME":"EARTH","ECCENTRICITY":"0.00013040","PERIOD":"95.593","MEAN_MOTION_DDOT":"0.0000000000000","CLASSIFICATION_TYPE":"U","BSTAR":"0.00002340900000","REF_FRAME":"TEME","MEAN_MOTION_DOT":"0.00000067","OBJECT_NAME":"STARLINK-2356","REV_AT_EPOCH":"7258","ARG_OF_PERICENTER":"54.8869","GP_ID":"207090648","SEMIMAJOR_AXIS":"6925.379","APOAPSIS":"548.147","INCLINATION":"53.0518","RCS_SIZE":"LARGE","MEAN_ELEMENT_THEORY":"SGP4","LAUNCH_DATE":"2021-03-14","OBJECT_TYPE":"PAYLOAD","TIME_SYSTEM":"UTC","RA_OF_ASC_NODE":"223.2038","COUNTRY_CODE":"US","ELEMENT_SET_NO":"999","EPHEMERIS_TYPE":"0","EPOCH":"2022-06-29T12:55:48.088992"},{"REV_AT_EPOCH":"7285","SEMIMAJOR_AXIS":"6925.352","GP_ID":"207118323","ARG_OF_PERICENTER":"60.8218","MEAN_ELEMENT_THEORY":"SGP4","INCLINATION":"53.0542","RCS_SIZE":"LARGE","APOAPSIS":"548.400","EPOCH":"2022-06-29T13:04:23.367360","EPHEMERIS_TYPE":"0","ELEMENT_SET_NO":"999","COUNTRY_CODE":"US","TIME_SYSTEM":"UTC","RA_OF_ASC_NODE":"208.1520","LAUNCH_DATE":"2021-03-14","OBJECT_TYPE":"PAYLOAD","TLE_LINE1":"1 47897U 21021AP  22180.54471490 -.00000491  00000-0 -14053-4 0  9991","TLE_LINE2":"2 47897  53.0542 208.1520 0001709  60.8218 299.2942 15.06398984 72858","DECAY_DATE":null,"PERIAPSIS":"546.033","MEAN_ANOMALY":"299.2942","OBJECT_ID":"2021-021AP","SITE":"AFETR","MEAN_MOTION":"15.06398984","MEAN_MOTION_DDOT":"0.0000000000000","PERIOD":"95.592","ECCENTRICITY":"0.00017090","FILE":"3505610","CENTER_NAME":"EARTH","NORAD_CAT_ID":"47897","OBJECT_NAME":"STARLINK-2357","MEAN_MOTION_DOT":"-0.00000491","REF_FRAME":"TEME","BSTAR":"-0.00001405300000","CLASSIFICATION_TYPE":"U"},{"FILE":"3505485","CENTER_NAME":"EARTH","NORAD_CAT_ID":"47898","PERIOD":"95.593","MEAN_MOTION_DDOT":"0.0000000000000","ECCENTRICITY":"0.00014500","BSTAR":"-0.00003311600000","CLASSIFICATION_TYPE":"U","REF_FRAME":"TEME","OBJECT_NAME":"STARLINK-2358","MEAN_MOTION_DOT":"-0.00000774","PERIAPSIS":"546.257","DECAY_DATE":null,"OBJECT_ID":"2021-021AQ","MEAN_ANOMALY":"289.9883","TLE_LINE1":"1 47898U 21021AQ  22180.40560031 -.00000774  00000-0 -33116-4 0  9992","TLE_LINE2":"2 47898  53.0530 208.8027 0001450  70.1262 289.9883 15.06384373 72779","MEAN_MOTION":"15.06384373","SITE":"AFETR","INCLINATION":"53.0530","RCS_SIZE":"LARGE","APOAPSIS":"548.266","MEAN_ELEMENT_THEORY":"SGP4","COUNTRY_CODE":"US","OBJECT_TYPE":"PAYLOAD","LAUNCH_DATE":"2021-03-14","TIME_SYSTEM":"UTC","RA_OF_ASC_NODE":"208.8027","EPOCH":"2022-06-29T09:44:03.866784","ELEMENT_SET_NO":"999","EPHEMERIS_TYPE":"0","REV_AT_EPOCH":"7277","ARG_OF_PERICENTER":"70.1262","SEMIMAJOR_AXIS":"6925.396","GP_ID":"207091650"},{"ARG_OF_PERICENTER":"63.9345","GP_ID":"207091899","SEMIMAJOR_AXIS":"6925.370","REV_AT_EPOCH":"7298","COUNTRY_CODE":"US","TIME_SYSTEM":"UTC","RA_OF_ASC_NODE":"198.4993","LAUNCH_DATE":"2021-03-14","OBJECT_TYPE":"PAYLOAD","EPOCH":"2022-06-29T11:14:14.922528","EPHEMERIS_TYPE":"0","ELEMENT_SET_NO":"999","RCS_SIZE":"LARGE","INCLINATION":"53.0530","APOAPSIS":"548.257","MEAN_ELEMENT_THEORY":"SGP4","SITE":"AFETR","MEAN_MOTION":"15.06393166","DECAY_DATE":null,"PERIAPSIS":"546.212","MEAN_ANOMALY":"296.1795","OBJECT_ID":"2021-021AR","TLE_LINE1":"1 47899U 21021AR  22180.46822827  .00000420  00000-0  47079-4 0  9992","TLE_LINE2":"2 47899  53.0530 198.4993 0001477  63.9345 296.1795 15.06393166 72982","REF_FRAME":"TEME","CLASSIFICATION_TYPE":"U","BSTAR":"0.00004707900000","MEAN_MOTION_DOT":"0.00000420","OBJECT_NAME":"STARLINK-2359","NORAD_CAT_ID":"47899","FILE":"3505485","CENTER_NAME":"EARTH","MEAN_MOTION_DDOT":"0.0000000000000","PERIOD":"95.593","ECCENTRICITY":"0.00014770"},{"APOAPSIS":"548.395","RCS_SIZE":"LARGE","INCLINATION":"53.0529","MEAN_ELEMENT_THEORY":"SGP4","OBJECT_TYPE":"PAYLOAD","LAUNCH_DATE":"2021-03-14","RA_OF_ASC_NODE":"209.0036","TIME_SYSTEM":"UTC","COUNTRY_CODE":"US","ELEMENT_SET_NO":"999","EPHEMERIS_TYPE":"0","EPOCH":"2022-06-29T08:38:59.831808","REV_AT_EPOCH":"7282","ARG_OF_PERICENTER":"52.9951","SEMIMAJOR_AXIS":"6925.350","GP_ID":"207091149","CENTER_NAME":"EARTH","FILE":"3505485","NORAD_CAT_ID":"47900","ECCENTRICITY":"0.00017040","PERIOD":"95.592","MEAN_MOTION_DDOT":"0.0000000000000","BSTAR":"-0.00002555100000","CLASSIFICATION_TYPE":"U","REF_FRAME":"TEME","MEAN_MOTION_DOT":"-0.00000662","OBJECT_NAME":"STARLINK-2360","MEAN_ANOMALY":"307.1194","OBJECT_ID":"2021-021AS","PERIAPSIS":"546.035","DECAY_DATE":null,"TLE_LINE2":"2 47900  53.0529 209.0036 0001704  52.9951 307.1194 15.06399499 72828","TLE_LINE1":"1 47900U 21021AS  22180.36041472 -.00000662  00000-0 -25551-4 0  9994","MEAN_MOTION":"15.06399499","SITE":"AFETR"},{"OBJECT_ID":"2021-021AT","MEAN_ANOMALY":"294.2048","PERIAPSIS":"546.190","DECAY_DATE":null,"TLE_LINE2":"2 47901  53.0544 198.6463 0001525  65.9101 294.2048 15.06389503 72969","TLE_LINE1":"1 47901U 21021AT  22180.45813628 -.00000561  00000-0 -18795-4 0  9995","SITE":"AFETR","MEAN_MOTION":"15.06389503","CENTER_NAME":"EARTH","FILE":"3505485","NORAD_CAT_ID":"47901","ECCENTRICITY":"0.00015250","PERIOD":"95.593","MEAN_MOTION_DDOT":"0.0000000000000","BSTAR":"-0.00001879500000","CLASSIFICATION_TYPE":"U","REF_FRAME":"TEME","OBJECT_NAME":"STARLINK-2361","MEAN_MOTION_DOT":"-0.00000561","REV_AT_EPOCH":"7296","ARG_OF_PERICENTER":"65.9101","GP_ID":"207090899","SEMIMAJOR_AXIS":"6925.381","APOAPSIS":"548.302","RCS_SIZE":"LARGE","INCLINATION":"53.0544","MEAN_ELEMENT_THEORY":"SGP4","OBJECT_TYPE":"PAYLOAD","LAUNCH_DATE":"2021-03-14","TIME_SYSTEM":"UTC","RA_OF_ASC_NODE":"198.6463","COUNTRY_CODE":"US","ELEMENT_SET_NO":"999","EPHEMERIS_TYPE":"0","EPOCH":"2022-06-29T10:59:42.974592"},{"REV_AT_EPOCH":"7278","ARG_OF_PERICENTER":"69.2421","SEMIMAJOR_AXIS":"6925.379","GP_ID":"207092150","APOAPSIS":"548.321","RCS_SIZE":"LARGE","INCLINATION":"53.0547","MEAN_ELEMENT_THEORY":"SGP4","RA_OF_ASC_NODE":"218.9253","TIME_SYSTEM":"UTC","OBJECT_TYPE":"PAYLOAD","LAUNCH_DATE":"2021-03-14","COUNTRY_CODE":"US","EPHEMERIS_TYPE":"0","ELEMENT_SET_NO":"999","EPOCH":"2022-06-29T09:00:16.830720","MEAN_ANOMALY":"290.8734","OBJECT_ID":"2021-021AU","DECAY_DATE":null,"PERIAPSIS":"546.167","TLE_LINE2":"2 47902  53.0547 218.9253 0001555  69.2421 290.8734 15.06390194 72783","TLE_LINE1":"1 47902U 21021AU  22180.37519480 -.00000053  00000-0  15356-4 0  9991","SITE":"AFETR","MEAN_MOTION":"15.06390194","FILE":"3505485","NORAD_CAT_ID":"47902","CENTER_NAME":"EARTH","ECCENTRICITY":"0.00015550","MEAN_MOTION_DDOT":"0.0000000000000","PERIOD":"95.593","REF_FRAME":"TEME","BSTAR":"0.00001535600000","CLASSIFICATION_TYPE":"U","MEAN_MOTION_DOT":"-0.00000053","OBJECT_NAME":"STARLINK-2362"}];
